[{"OBJECT_NAME":"HULIANWANG DIGUI-33","OBJECT_ID":"2025-121D","EPOCH":"2026-03-07T07:21:04.964544","MEAN_MOTION":13.2442551,"ECCENTRICITY":0.00020671,"INCLINATION":86.4972,"RA_OF_ASC_NODE":47.9642,"ARG_OF_PERICENTER":76.6557,"MEAN_ANOMALY":283.4808,"EPHEMERIS_TYPE":0,"CLASSIFICATION_TYPE":"U","NORAD_CAT_ID":64286,"ELEMENT_SET_NO":999,"REV_AT_EPOCH":3667,"BSTAR":2.6009036e-5,"MEAN_MOTION_DOT":2.6e-7,"MEAN_MOTION_DDOT":0},{"OBJECT_NAME":"HULIANWANG DIGUI-34","OBJECT_ID":"2025-121E","EPOCH":"2026-03-07T07:10:16.801248","MEAN_MOTION":13.24424389,"ECCENTRICITY":0.00021971,"INCLINATION":86.495,"RA_OF_ASC_NODE":47.8982,"ARG_OF_PERICENTER":72.5487,"MEAN_ANOMALY":287.5887,"EPHEMERIS_TYPE":0,"CLASSIFICATION_TYPE":"U","NORAD_CAT_ID":64287,"ELEMENT_SET_NO":999,"REV_AT_EPOCH":3667,"BSTAR":4.621697e-5,"MEAN_MOTION_DOT":3.4e-7,"MEAN_MOTION_DDOT":0},{"OBJECT_NAME":"HULIANWANG DIGUI-35","OBJECT_ID":"2025-159A","EPOCH":"2026-03-07T06:22:00.139296","MEAN_MOTION":13.24417395,"ECCENTRICITY":0.00012624,"INCLINATION":86.4981,"RA_OF_ASC_NODE":316.8841,"ARG_OF_PERICENTER":74.0232,"MEAN_ANOMALY":286.1041,"EPHEMERIS_TYPE":0,"CLASSIFICATION_TYPE":"U","NORAD_CAT_ID":64956,"ELEMENT_SET_NO":999,"REV_AT_EPOCH":2963,"BSTAR":0.00014539206,"MEAN_MOTION_DOT":7.7e-7,"MEAN_MOTION_DDOT":0},{"OBJECT_NAME":"HULIANWANG DIGUI-36","OBJECT_ID":"2025-159B","EPOCH":"2026-03-07T06:10:50.443392","MEAN_MOTION":13.24419978,"ECCENTRICITY":0.00013403,"INCLINATION":86.5,"RA_OF_ASC_NODE":316.9248,"ARG_OF_PERICENTER":72.5416,"MEAN_ANOMALY":287.5864,"EPHEMERIS_TYPE":0,"CLASSIFICATION_TYPE":"U","NORAD_CAT_ID":64957,"ELEMENT_SET_NO":999,"REV_AT_EPOCH":2963,"BSTAR":0.00015667037,"MEAN_MOTION_DOT":8.2e-7,"MEAN_MOTION_DDOT":0},{"OBJECT_NAME":"HULIANWANG DIGUI-37","OBJECT_ID":"2025-159C","EPOCH":"2026-03-07T05:59:58.855200","MEAN_MOTION":13.24419608,"ECCENTRICITY":0.0001419,"INCLINATION":86.4941,"RA_OF_ASC_NODE":316.7883,"ARG_OF_PERICENTER":69.4821,"MEAN_ANOMALY":290.6465,"EPHEMERIS_TYPE":0,"CLASSIFICATION_TYPE":"U","NORAD_CAT_ID":64958,"ELEMENT_SET_NO":999,"REV_AT_EPOCH":2963,"BSTAR":0.00017882333,"MEAN_MOTION_DOT":9.1e-7,"MEAN_MOTION_DDOT":0},{"OBJECT_NAME":"HULIANWANG DIGUI-38","OBJECT_ID":"2025-159D","EPOCH":"2026-03-07T05:49:07.803552","MEAN_MOTION":13.24419737,"ECCENTRICITY":0.00014036,"INCLINATION":86.5,"RA_OF_ASC_NODE":316.9177,"ARG_OF_PERICENTER":72.2713,"MEAN_ANOMALY":287.8575,"EPHEMERIS_TYPE":0,"CLASSIFICATION_TYPE":"U","NORAD_CAT_ID":64959,"ELEMENT_SET_NO":999,"REV_AT_EPOCH":2963,"BSTAR":0.00014179436,"MEAN_MOTION_DOT":7.6e-7,"MEAN_MOTION_DDOT":0},{"OBJECT_NAME":"HULIANWANG DIGUI-39","OBJECT_ID":"2025-159E","EPOCH":"2026-03-07T05:38:13.953408","MEAN_MOTION":13.24419908,"ECCENTRICITY":0.0001409,"INCLINATION":86.4976,"RA_OF_ASC_NODE":316.8596,"ARG_OF_PERICENTER":73.5198,"MEAN_ANOMALY":286.6091,"EPHEMERIS_TYPE":0,"CLASSIFICATION_TYPE":"U","NORAD_CAT_ID":64960,"ELEMENT_SET_NO":999,"REV_AT_EPOCH":2963,"BSTAR":0.00011673501,"MEAN_MOTION_DOT":6.5e-7,"MEAN_MOTION_DDOT":0},{"OBJECT_NAME":"HULIANWANG DIGUI-40","OBJECT_ID":"2025-162A","EPOCH":"2026-03-07T01:44:39.524352","MEAN_MOTION":13.29332403,"ECCENTRICITY":0.00010375,"INCLINATION":49.9986,"RA_OF_ASC_NODE":272.2152,"ARG_OF_PERICENTER":80.1412,"MEAN_ANOMALY":279.9577,"EPHEMERIS_TYPE":0,"CLASSIFICATION_TYPE":"U","NORAD_CAT_ID":65043,"ELEMENT_SET_NO":999,"REV_AT_EPOCH":2976,"BSTAR":8.7203352e-5,"MEAN_MOTION_DOT":-8.4e-7,"MEAN_MOTION_DDOT":0},{"OBJECT_NAME":"HULIANWANG DIGUI-41","OBJECT_ID":"2025-162B","EPOCH":"2026-03-07T06:57:24.250464","MEAN_MOTION":13.29332868,"ECCENTRICITY":0.00010725,"INCLINATION":49.9996,"RA_OF_ASC_NODE":271.3803,"ARG_OF_PERICENTER":80.217,"MEAN_ANOMALY":279.8823,"EPHEMERIS_TYPE":0,"CLASSIFICATION_TYPE":"U","NORAD_CAT_ID":65044,"ELEMENT_SET_NO":999,"REV_AT_EPOCH":2980,"BSTAR":9.23442e-5,"MEAN_MOTION_DOT":-8.1e-7,"MEAN_MOTION_DDOT":0},{"OBJECT_NAME":"HULIANWANG DIGUI-42","OBJECT_ID":"2025-162C","EPOCH":"2026-03-07T06:45:20.142432","MEAN_MOTION":13.29332298,"ECCENTRICITY":0.00010158,"INCLINATION":49.9961,"RA_OF_ASC_NODE":271.2743,"ARG_OF_PERICENTER":82.7504,"MEAN_ANOMALY":277.3484,"EPHEMERIS_TYPE":0,"CLASSIFICATION_TYPE":"U","NORAD_CAT_ID":65045,"ELEMENT_SET_NO":999,"REV_AT_EPOCH":2980,"BSTAR":9.6103589e-5,"MEAN_MOTION_DOT":-7.9e-7,"MEAN_MOTION_DDOT":0},{"OBJECT_NAME":"HULIANWANG DIGUI-43","OBJECT_ID":"2025-162D","EPOCH":"2026-03-07T06:33:16.483680","MEAN_MOTION":13.29333259,"ECCENTRICITY":0.00010053,"INCLINATION":49.9978,"RA_OF_ASC_NODE":271.263,"ARG_OF_PERICENTER":81.5011,"MEAN_ANOMALY":278.5975,"EPHEMERIS_TYPE":0,"CLASSIFICATION_TYPE":"U","NORAD_CAT_ID":65046,"ELEMENT_SET_NO":999,"REV_AT_EPOCH":2980,"BSTAR":8.2341371e-5,"MEAN_MOTION_DOT":-8.6e-7,"MEAN_MOTION_DDOT":0},{"OBJECT_NAME":"HULIANWANG DIGUI-44","OBJECT_ID":"2025-162E","EPOCH":"2026-03-07T06:20:48.613056","MEAN_MOTION":13.29340756,"ECCENTRICITY":7.543e-5,"INCLINATION":50.0006,"RA_OF_ASC_NODE":271.2663,"ARG_OF_PERICENTER":0.0147,"MEAN_ANOMALY":0.0725,"EPHEMERIS_TYPE":0,"CLASSIFICATION_TYPE":"U","NORAD_CAT_ID":65047,"ELEMENT_SET_NO":999,"REV_AT_EPOCH":2981,"BSTAR":6.556789e-5,"MEAN_MOTION_DOT":-9.4e-7,"MEAN_MOTION_DDOT":0},{"OBJECT_NAME":"HULIANWANG DIGUI-45","OBJECT_ID":"2025-162F","EPOCH":"2026-03-07T06:09:16.060032","MEAN_MOTION":13.29333099,"ECCENTRICITY":0.0001057,"INCLINATION":50.0036,"RA_OF_ASC_NODE":271.2787,"ARG_OF_PERICENTER":81.3042,"MEAN_ANOMALY":278.795,"EPHEMERIS_TYPE":0,"CLASSIFICATION_TYPE":"U","NORAD_CAT_ID":65048,"ELEMENT_SET_NO":999,"REV_AT_EPOCH":2980,"BSTAR":9.5787402e-5,"MEAN_MOTION_DOT":-8.0e-7,"MEAN_MOTION_DDOT":0},{"OBJECT_NAME":"HULIANWANG DIGUI-46","OBJECT_ID":"2025-162G","EPOCH":"2026-03-07T02:20:43.231776","MEAN_MOTION":13.29332974,"ECCENTRICITY":0.00010609,"INCLINATION":50.0053,"RA_OF_ASC_NODE":271.8074,"ARG_OF_PERICENTER":82.8406,"MEAN_ANOMALY":277.2587,"EPHEMERIS_TYPE":0,"CLASSIFICATION_TYPE":"U","NORAD_CAT_ID":65049,"ELEMENT_SET_NO":999,"REV_AT_EPOCH":2978,"BSTAR":9.0462929e-5,"MEAN_MOTION_DOT":-8.2e-7,"MEAN_MOTION_DDOT":0},{"OBJECT_NAME":"HULIANWANG DIGUI-47","OBJECT_ID":"2025-162H","EPOCH":"2026-03-07T05:45:12.171744","MEAN_MOTION":13.29332897,"ECCENTRICITY":0.00010535,"INCLINATION":50.0018,"RA_OF_ASC_NODE":271.1621,"ARG_OF_PERICENTER":84.391,"MEAN_ANOMALY":275.7082,"EPHEMERIS_TYPE":0,"CLASSIFICATION_TYPE":"U","NORAD_CAT_ID":65050,"ELEMENT_SET_NO":999,"REV_AT_EPOCH":2980,"BSTAR":0.00010861889,"MEAN_MOTION_DOT":-7.4e-7,"MEAN_MOTION_DDOT":0},{"OBJECT_NAME":"HULIANWANG DIGUI-48","OBJECT_ID":"2025-162J","EPOCH":"2026-03-07T01:56:41.447328","MEAN_MOTION":13.29332404,"ECCENTRICITY":0.00010357,"INCLINATION":50.0028,"RA_OF_ASC_NODE":271.6752,"ARG_OF_PERICENTER":81.2402,"MEAN_ANOMALY":278.8588,"EPHEMERIS_TYPE":0,"CLASSIFICATION_TYPE":"U","NORAD_CAT_ID":65051,"ELEMENT_SET_NO":999,"REV_AT_EPOCH":2978,"BSTAR":0.00011361195,"MEAN_MOTION_DOT":-7.1e-7,"MEAN_MOTION_DDOT":0}]
