HULIANWANG DIGUI-33     
1 64286U 25121D   26066.30630746  .00000026  00000+0  26009-4 0  9994
2 64286  86.4972  47.9642 0002067  76.6557 283.4808 13.24425510 36679
HULIANWANG DIGUI-34     
1 64287U 25121E   26066.29880557  .00000034  00000+0  46217-4 0  9992
2 64287  86.4950  47.8982 0002197  72.5487 287.5887 13.24424389 36678
HULIANWANG DIGUI-35     
1 64956U 25159A   26066.26527939  .00000077  00000+0  14539-3 0  9993
2 64956  86.4981 316.8841 0001262  74.0232 286.1041 13.24417395 29639
HULIANWANG DIGUI-36     
1 64957U 25159B   26066.25752828  .00000082  00000+0  15667-3 0  9999
2 64957  86.5000 316.9248 0001340  72.5416 287.5864 13.24419978 29636
HULIANWANG DIGUI-37     
1 64958U 25159C   26066.24998675  .00000091  00000+0  17882-3 0  9992
2 64958  86.4941 316.7883 0001419  69.4821 290.6465 13.24419608 29637
HULIANWANG DIGUI-38     
1 64959U 25159D   26066.24245143  .00000076  00000+0  14179-3 0  9997
2 64959  86.5000 316.9177 0001403  72.2713 287.8575 13.24419737 29631
HULIANWANG DIGUI-39     
1 64960U 25159E   26066.23488372  .00000065  00000+0  11674-3 0  9996
2 64960  86.4976 316.8596 0001409  73.5198 286.6091 13.24419908 29635
HULIANWANG DIGUI-40     
1 65043U 25162A   26066.07267968 -.00000084  00000+0  87203-4 0  9995
2 65043  49.9986 272.2152 0001037  80.1412 279.9577 13.29332403 29763
HULIANWANG DIGUI-41     
1 65044U 25162B   26066.28986401 -.00000081  00000+0  92344-4 0  9998
2 65044  49.9996 271.3803 0001072  80.2170 279.8823 13.29332868 29802
HULIANWANG DIGUI-42     
1 65045U 25162C   26066.28148313 -.00000079  00000+0  96104-4 0  9996
2 65045  49.9961 271.2743 0001015  82.7504 277.3484 13.29332298 29805
HULIANWANG DIGUI-43     
1 65046U 25162D   26066.27310745 -.00000086  00000+0  82341-4 0  9992
2 65046  49.9978 271.2630 0001005  81.5011 278.5975 13.29333259 29804
HULIANWANG DIGUI-44     
1 65047U 25162E   26066.26445154 -.00000094  00000+0  65568-4 0  9996
2 65047  50.0006 271.2663 0000754   0.0147   0.0725 13.29340756 29814
HULIANWANG DIGUI-45     
1 65048U 25162F   26066.25643588 -.00000080  00000+0  95787-4 0  9998
2 65048  50.0036 271.2787 0001057  81.3042 278.7950 13.29333099 29803
HULIANWANG DIGUI-46     
1 65049U 25162G   26066.09772259 -.00000082  00000+0  90463-4 0  9997
2 65049  50.0053 271.8074 0001060  82.8406 277.2587 13.29332974 29780
HULIANWANG DIGUI-47     
1 65050U 25162H   26066.23972421 -.00000074  00000+0  10862-3 0  9993
2 65050  50.0018 271.1621 0001053  84.3910 275.7082 13.29332897 29803
HULIANWANG DIGUI-48     
1 65051U 25162J   26066.08103527 -.00000071  00000+0  11361-3 0  9992
2 65051  50.0028 271.6752 0001035  81.2402 278.8588 13.29332404 29783
